     2.10           G: GLONASS NAV DATA                     RINEX VERSION / TYPE
teqc  2011Oct11     IGN-E (SPG)         20150127 08:00:46UTCPGM / RUN BY / DATE
Linux 2.4.21-27.ELsmp|Opteron|gcc -static|Linux x86_64|=+   COMMENT
                                                            END OF HEADER
23 15  1 27  7 15  0.0-7.062004879117D-04-3.637978807092D-12 2.520000000000D+04
    1.968273291016D+04 1.626647949219D+00 9.313225746155D-10 0.000000000000D+00
    7.396692382812D+03 1.135828971863D+00-9.313225746155D-10 3.000000000000D+00
    1.443569140625D+04-2.799519538879D+00-2.793967723846D-09 0.000000000000D+00
24 15  1 27  7 15  0.0-1.204945147038D-04-0.000000000000D+00 2.520000000000D+04
    9.724541992188D+03 2.445374488831D+00 0.000000000000D+00 0.000000000000D+00
   -5.784076171875D+03 1.960896492004D+00-9.313225746155D-10 2.000000000000D+00
    2.284281103516D+04-5.437078475952D-01-2.793967723846D-09 0.000000000000D+00
17 15  1 27  7 15  0.0 1.467168331146D-04 9.094947017729D-13 2.652000000000D+04
   -6.762608398438D+03 1.848814010620D+00-9.313225746155D-10 0.000000000000D+00
   -1.653710156250D+04 1.675805091858D+00-0.000000000000D+00 4.000000000000D+00
    1.825154345703D+04 2.203613281250D+00-9.313225746155D-10 0.000000000000D+00
 8 15  1 27  7 45  0.0-2.619903534651D-05 0.000000000000D+00 2.700000000000D+04
    8.135488281250D+03-2.743806838989D+00-9.313225746155D-10 0.000000000000D+00
    7.973410156250D+03 1.482431411743D+00-0.000000000000D+00 6.000000000000D+00
    2.286496728516D+04 4.620351791382D-01-2.793967723846D-09 0.000000000000D+00
 1 15  1 27  7 45  0.0-1.567732542753D-04 0.000000000000D+00 2.700000000000D+04
    2.090972460938D+04-1.738692283630D+00 9.313225746155D-10 0.000000000000D+00
   -3.830611816406D+03 8.424301147461D-01-9.313225746155D-10 1.000000000000D+00
    1.407879199219D+04 2.811859130859D+00-1.862645149231D-09 0.000000000000D+00
 2 15  1 27  7 45  0.0 1.155668869615D-04 1.818989403546D-12 2.700000000000D+04
    2.146074560547D+04 2.806224822998D-01 2.793967723846D-09 0.000000000000D+00
   -1.348257470703D+04-3.479099273682D-01-9.313225746155D-10-4.000000000000D+00
   -2.995508789062D+03 3.540261268616D+00-9.313225746155D-10 0.000000000000D+00
 7 15  1 27  7 45  0.0-1.135608181357D-04-0.000000000000D+00 2.700000000000D+04
   -9.102850097656D+03-2.170262336731D+00-2.793967723846D-09 0.000000000000D+00
    1.505008398438D+04 1.297404289246D+00 0.000000000000D+00 5.000000000000D+00
    1.849069335938D+04-2.128750801086D+00-9.313225746155D-10 0.000000000000D+00
17 15  1 27  7 45  0.0 1.467205584049D-04 9.094947017729D-13 2.700000000000D+04
   -2.871288085938D+03 2.450289726257D+00-0.000000000000D+00 0.000000000000D+00
   -1.353966845703D+04 1.611515045166D+00-0.000000000000D+00 4.000000000000D+00
    2.146415625000D+04 1.342865943909D+00-1.862645149231D-09 0.000000000000D+00
22 15  1 27  7 45  0.0 1.511173322797D-04 1.818989403546D-12 2.700000000000D+04
    1.754862744141D+04-1.000026702881D+00 9.313225746155D-10 0.000000000000D+00
    1.602610937500D+04-8.362407684326D-01-0.000000000000D+00-3.000000000000D+00
   -9.441733398438D+03-3.263273239136D+00-0.000000000000D+00 0.000000000000D+00
23 15  1 27  7 45  0.0-7.062070071697D-04-3.637978807092D-12 2.700000000000D+04
    2.220264160156D+04 1.130792617798D+00 9.313225746155D-10 0.000000000000D+00
    8.849094726562D+03 4.915447235107D-01-9.313225746155D-10 3.000000000000D+00
    8.903394042969D+03-3.307550430298D+00-1.862645149231D-09 0.000000000000D+00
24 15  1 27  7 45  0.0-1.204954460263D-04-0.000000000000D+00 2.700000000000D+04
    1.421108398438D+04 2.491858482361D+00 0.000000000000D+00 0.000000000000D+00
   -2.699475585938D+03 1.447016716003D+00-9.313225746155D-10 2.000000000000D+00
    2.099223583984D+04-1.499087333679D+00-2.793967723846D-09 0.000000000000D+00
